HYPERFIELD-1A           
1 60562U 24149CY  26068.76488211  .00008569  00000+0  30052-3 0  9998
2 60562  97.3842 149.5066 0003865 313.7844  46.3076 15.29681349 86836
STARLINK-32528          
1 61724U 24196T   26068.50651806 -.00001604  00000+0 -42081-4 0  9996
2 61724  53.1604 102.5375 0001296  74.5088 285.6056 15.30169385 75920
